STARLINK-4470           
1 53655U 22105H   23360.67482121  .00001272  00000+0  10360-3 0  9993
2 53655  97.6538 239.0055 0006403  62.2759 297.9114 15.01265779 72603
STARLINK-4466           
1 53656U 22105J   23360.66555845  .00000406  00000+0  36177-4 0  9990
2 53656  97.6529 238.9957 0005111  46.9566 313.2086 15.01267050 72607
STARLINK-4469           
1 53657U 22105K   23360.67296828  .00001925  00000+0  15439-3 0  9999
2 53657  97.6537 239.0022 0006483  56.1279 304.0561 15.01263496 72605
STARLINK-4452           
1 53658U 22105L   23360.66741079  .00000339  00000+0  30986-4 0  9995
2 53658  97.6532 238.9947 0005792  50.0925 310.0808 15.01267719 72601
STARLINK-4463           
1 53659U 22105M   23360.66951893  .00004244  00000+0  33468-3 0  9999
2 53659  97.6544 238.9987 0005887  45.1629 315.0073 15.01262668 72607
STARLINK-4473           
1 53660U 22105N   23360.66185693  .00000077  00000+0  10626-4 0  9990
2 53660  97.6543 238.9781 0004276  46.7283 313.4297 15.01260809 72609
STARLINK-4472           
1 53661U 22105P   23360.66395354 -.00000126  00000+0 -51963-5 0  9995
2 53661  97.6539 238.9865 0004799  44.3075 315.8533 15.01261507 72606
STARLINK-4357           
1 53662U 22105Q   23360.65839689 -.00000320  00000+0 -20279-4 0  9990
2 53662  97.6545 238.9719 0002710  59.6937 300.4555 15.01260435 72602
STARLINK-4457           
1 53663U 22105R   23360.66370913 -.00000212  00000+0 -11906-4 0  9999
2 53663  97.6539 238.9826 0004713  45.1760 314.9846 15.01261459 72604
STARLINK-4471           
1 53664U 22105S   23360.65469587  .00000560  00000+0  48176-4 0  9998
2 53664  97.6547 238.9717 0002469  71.7929 288.3564 15.01254228 72608
STARLINK-4334           
1 53665U 22105T   23360.65629912  .00001449  00000+0  11735-3 0  9996
2 53665  97.6544 238.9805 0002879  53.6146 306.5343 15.01261915 72608
STARLINK-4449           
1 53666U 22105U   23360.65074763  .00000931  00000+0  77096-4 0  9993
2 53666  97.6543 238.9682 0003415  95.4714 264.6900 15.01257071 72604
STARLINK-4406           
1 53667U 22105V   23360.66000189  .00000643  00000+0  54685-4 0  9995
2 53667  97.6545 238.9757 0003461  43.2869 316.8626 15.01265001 72600
STARLINK-4458           
1 53668U 22105W   23360.91667824 -.00469686  00000+0 -39095-1 0  9992
2 53668  97.6468 239.2508 0001678  75.7887  32.5526 15.00844661  5792
STARLINK-4464           
1 53669U 22105X   23360.65815547 -.00000200  00000+0 -10954-4 0  9990
2 53669  97.6542 238.9639 0003620  63.6266 296.5329 15.01259695 72608
STARLINK-4459           
1 53670U 22105Y   23360.64889797 -.00000503  00000+0 -34561-4 0  9995
2 53670  97.6540 238.9620 0001628  81.9042 278.2367 15.01253666 72600
STARLINK-4440           
1 53671U 22105Z   23360.64914158  .00000492  00000+0  42871-4 0  9994
2 53671  97.6546 238.9662 0002233  85.9731 274.1748 15.01253291 72607
STARLINK-4428           
1 53672U 22105AA  23360.64728772 -.00000270  00000+0 -16426-4 0  9993
2 53672  97.6539 238.9564 0001534  93.6129 266.5271 15.01259262 72601
STARLINK-4456           
1 53673U 22105AB  23360.67403181  .00006620  00000+0  53049-3 0  9995
2 53673  97.6546 239.1388 0005155  72.3933 287.7854 15.00448893 72619
STARLINK-4620           
1 53674U 22105AC  23360.64334031 -.00000387  00000+0 -25565-4 0  9999
2 53674  97.6547 238.9570 0002066  78.7209 281.4248 15.01261219 72608
STARLINK-4617           
1 53675U 22105AD  23360.63778639  .00012971  00000+0  10117-2 0  9990
2 53675  97.6541 238.9727 0001809  81.0802 279.0627 15.01294498 72606
STARLINK-4621           
1 53676U 22105AE  23360.63963707  .00000064  00000+0  95433-5 0  9990
2 53676  97.6546 238.9534 0001684  80.5141 279.6273 15.01260677 72604
STARLINK-4579           
1 53677U 22105AF  23360.64519188 -.00000954  00000+0 -69689-4 0  9995
2 53677  97.6542 238.9576 0001511  88.4005 271.7392 15.01257907 72609
STARLINK-4418           
1 53678U 22105AG  23360.64543833 -.00000091  00000+0 -25267-5 0  9997
2 53678  97.6544 238.9411 0001420  88.7825 271.3562 15.01257321 72607
STARLINK-4632           
1 53679U 22105AH  23360.64148698  .00000336  00000+0  30783-4 0  9996
2 53679  97.6544 238.9549 0001605  94.2352 265.9056 15.01260767 72607
STARLINK-4630           
1 53680U 22105AJ  23360.63408007 -.00000960  00000+0 -70171-4 0  9990
2 53680  97.6550 238.9483 0002139  90.0761 270.0708 15.01266103 72605
STARLINK-4424           
1 53681U 22105AK  23360.63223344  .00000031  00000+0  70267-5 0  9994
2 53681  97.6561 238.9597 0001435  80.0276 280.1110 15.01256523 72606
STARLINK-4438           
1 53682U 22105AL  23360.62297244  .00001044  00000+0  85875-4 0  9999
2 53682  97.6559 238.9678 0002543  87.1665 272.9850 15.01261598 72883
STARLINK-4625           
1 53683U 22105AM  23360.63593278  .00000052  00000+0  86078-5 0  9992
2 53683  97.6540 238.9491 0001923  96.7331 263.4112 15.01259715 72608
STARLINK-4624           
1 53684U 22105AN  23360.65445026 -.00001023  00000+0 -75068-4 0  9999
2 53684  97.6547 239.0325 0002540  83.5559 276.5954 15.01252652 72608
STARLINK-4626           
1 53685U 22105AP  23360.63063203  .00002534  00000+0  20178-3 0  9998
2 53685  97.6551 238.9496 0001766  85.5942 274.5484 15.01263007 72600
STARLINK-4467           
1 53686U 22105AQ  23360.66926094  .00000162  00000+0  17209-4 0  9995
2 53686  97.6550 239.0556 0005806  54.2574 305.9189 15.01260348 72619
STARLINK-4569           
1 53687U 22105AR  23360.63038105  .00000001  00000+0  46924-5 0  9999
2 53687  97.6564 238.9445 0001515  75.6523 284.4869 15.01260125 72602
STARLINK-4571           
1 53688U 22105AS  23360.62482440  .00000654  00000+0  55501-4 0  9998
2 53688  97.6570 238.9459 0002106 101.8700 258.2760 15.01262210 72887
STARLINK-4562           
1 53689U 22105AT  23360.67876217  .00000282  00000+0  26579-4 0  9993
2 53689  97.6546 239.0429 0005215  66.0001 294.1768 15.01267141 72616
STARLINK-4570           
1 53690U 22105AU  23360.64704706  .00000016  00000+0  58205-5 0  9992
2 53690  97.6542 238.9042 0001645  95.9692 264.1719 15.01259709 72606
STARLINK-4560           
1 53691U 22105AV  23360.62667475  .00001041  00000+0  85659-4 0  9993
2 53691  97.6569 238.9386 0002334  95.7309 264.4182 15.01264195 72888
STARLINK-4572           
1 53692U 22105AW  23360.62112869  .00001632  00000+0  13166-3 0  9995
2 53692  97.6560 238.9462 0002991  83.9761 276.1804 15.01253327 72601
STARLINK-4566           
1 53693U 22105AX  23360.61927466  .00000471  00000+0  41244-4 0  9991
2 53693  97.6559 238.9450 0002766  86.7826 273.3715 15.01260172 72606
STARLINK-4725           
1 53700U 22107A   23360.89643558  .00001097  00000+0  87034-4 0  9991
2 53700  53.2169 252.1101 0001756 114.6640 245.4535 15.08842280 73518
STARLINK-4711           
1 53701U 22107B   23360.89275145  .00001341  00000+0  10229-3 0  9998
2 53701  53.2159 252.0965 0001411  88.5800 271.5353 15.08843031 73513
STARLINK-4724           
1 53702U 22107C   23360.91808732  .00000811  00000+0  69019-4 0  9999
2 53702  53.2161 237.2921 0001422  89.9164 270.1991 15.08843787 73751
STARLINK-4731           
1 53703U 22107D   23360.90749154  .00011610  00000+0  74619-3 0  9991
2 53703  53.2154 252.1886 0001415  76.7974 283.3176 15.08847442 73512
STARLINK-4714           
1 53704U 22107E   23360.95539151  .00001650  00000+0  12172-3 0  9990
2 53704  53.2166 252.4846 0001523  98.7438 261.3727 15.08842223 73356
STARLINK-4717           
1 53705U 22107F   23360.95170964  .00007961  00000+0  51809-3 0  9995
2 53705  53.2161 252.4687 0001911  50.5709 309.5452 15.08814926 73510
STARLINK-4716           
1 53706U 22107G   23360.93696383 -.00001088  00000+0 -50289-4 0  9990
2 53706  53.2158 252.3683 0001595 113.0454 247.0707 15.08843308 73517
STARLINK-4667           
1 53707U 22107H   23360.92914695 -.00000307  00000+0 -12201-5 0  9995
2 53707  53.2154 237.3548 0001544 100.1137 260.0030 15.08829216 73725
STARLINK-4694           
1 53708U 22107J   23360.91440438 -.00000194  00000+0  59004-5 0  9999
2 53708  53.2154 237.2749 0001506  87.3180 272.7985 15.08842515 73726
STARLINK-4685           
1 53709U 22107K   23360.90150352  .00000601  00000+0  55838-4 0  9994
2 53709  53.2168 257.1600 0001495  95.2647 264.8516 15.08842054 73137
STARLINK-4627           
1 53711U 22107M   23360.91256190  .00001473  00000+0  11063-3 0  9994
2 53711  53.2169 257.2159 0001709  85.0058 275.1129 15.08835042 73136
STARLINK-4683           
1 53712U 22107N   23360.95299777  .00013792  00000+0  88286-3 0  9995
2 53712  53.2164 256.7827 0001595 110.7982 249.3181 15.08844856 73160
STARLINK-4698           
1 53713U 22107P   23360.89551034  .00000387  00000+0  42386-4 0  9994
2 53713  53.2174 262.0999 0001335 104.7497 255.3643 15.08834242 73065
STARLINK-4688           
1 53714U 22107Q   23360.90698155  .00032121  00000+0  20206-2 0  9999
2 53714  53.2155 237.2233 0005008 170.8403 189.2681 15.08950615 73411
STARLINK-4686           
1 53715U 22107R   23360.90656676  .00000233  00000+0  32726-4 0  9993
2 53715  53.2164 262.1534 0001625  97.8480 262.2696 15.08840299 73073
STARLINK-4699           
1 53716U 22107S   23360.90288273 -.00000991  00000+0 -44182-4 0  9990
2 53716  53.2168 262.1367 0001345  96.9026 263.2119 15.08845455 73066
STARLINK-4695           
1 53718U 22107U   23360.89286891  .00000238  00000+0  33047-4 0  9994
2 53718  53.2172 262.7642 0002014 122.4341 237.6846 15.08840547 73052
STARLINK-4644           
1 53719U 22107V   23360.89459385  .00001108  00000+0  87703-4 0  9990
2 53719  53.2156 232.1216 0001390  86.0940 274.0211 15.08844176 73490
STARLINK-4642           
1 53720U 22107W   23360.91025251  .00004623  00000+0  30832-3 0  9991
2 53720  53.2161 262.1833 0001416  80.6035 279.5117 15.08842703 73073
STARLINK-4707           
1 53721U 22107X   23360.91762109  .00001132  00000+0  89228-4 0  9998
2 53721  53.2155 262.2321 0001498 120.1566 239.9575 15.08842551 73078
